CZ-2C R/B               
1 54039U 22132E   26047.53561409  .00042185  00000+0  51795-3 0  9992
2 54039  97.2955  50.2436 0019445 160.7683 199.4313 15.59960537187077
GSLV R/B                
1 54149U 22138AN  26047.79379560  .00003232  00000+0  28028-3 0  9996
2 54149  87.3872 173.3536 0019993 223.0030 136.9640 14.96610030180805
XRISM                   
1 57800U 23137A   26047.44069708  .00006101  00000+0  34825-3 0  9995
2 57800  31.0028  61.0697 0008214 187.8393 172.2118 15.11232760134579
ACS3                    
1 59588U 24077B   26047.82550737  .00016079  00000+0  13219-1 0  9990
2 59588  97.2185 353.6281 0047656 138.6275 221.8513 13.88698762 91300
SZ-21 MODULE            
1 66515U 25246C   26047.15889357  .00036256  00000+0  33420-3 0  9993
2 66515  41.4767 335.7274 0002065 297.2622  62.8008 15.66881556 14693
