CCSDS_OMM_VERS = 2.0
CREATION_DATE  = 
ORIGINATOR     = 

OBJECT_NAME    = CZ-2C R/B
OBJECT_ID      = 2022-132E
CENTER_NAME    = EARTH
REF_FRAME      = TEME
TIME_SYSTEM    = UTC
MEAN_ELEMENT_THEORY = SGP/SGP4

EPOCH          = 2026-02-16T12:51:17.057376
MEAN_MOTION    = 15.59960537
ECCENTRICITY   = .0019445
INCLINATION    = 97.2955
RA_OF_ASC_NODE = 50.2436
ARG_OF_PERICENTER = 160.7683
MEAN_ANOMALY   = 199.4313

EPHEMERIS_TYPE = 0
CLASSIFICATION_TYPE = U
NORAD_CAT_ID   = 54039
ELEMENT_SET_NO = 999
REV_AT_EPOCH   = 18707
BSTAR          = .51795E-3
MEAN_MOTION_DOT = .42185E-3
MEAN_MOTION_DDOT = 0

CCSDS_OMM_VERS = 2.0
CREATION_DATE  = 
ORIGINATOR     = 

OBJECT_NAME    = GSLV R/B
OBJECT_ID      = 2022-138AN
CENTER_NAME    = EARTH
REF_FRAME      = TEME
TIME_SYSTEM    = UTC
MEAN_ELEMENT_THEORY = SGP/SGP4

EPOCH          = 2026-02-16T19:03:03.939840
MEAN_MOTION    = 14.96610030
ECCENTRICITY   = .0019993
INCLINATION    = 87.3872
RA_OF_ASC_NODE = 173.3536
ARG_OF_PERICENTER = 223.0030
MEAN_ANOMALY   = 136.9640

EPHEMERIS_TYPE = 0
CLASSIFICATION_TYPE = U
NORAD_CAT_ID   = 54149
ELEMENT_SET_NO = 999
REV_AT_EPOCH   = 18080
BSTAR          = .28028E-3
MEAN_MOTION_DOT = .3232E-4
MEAN_MOTION_DDOT = 0

CCSDS_OMM_VERS = 2.0
CREATION_DATE  = 
ORIGINATOR     = 

OBJECT_NAME    = XRISM
OBJECT_ID      = 2023-137A
CENTER_NAME    = EARTH
REF_FRAME      = TEME
TIME_SYSTEM    = UTC
MEAN_ELEMENT_THEORY = SGP/SGP4

EPOCH          = 2026-02-16T10:34:36.227712
MEAN_MOTION    = 15.11232760
ECCENTRICITY   = .00082146
INCLINATION    = 31.0028
RA_OF_ASC_NODE = 61.0697
ARG_OF_PERICENTER = 187.8393
MEAN_ANOMALY   = 172.2118

EPHEMERIS_TYPE = 0
CLASSIFICATION_TYPE = U
NORAD_CAT_ID   = 57800
ELEMENT_SET_NO = 999
REV_AT_EPOCH   = 13457
BSTAR          = .34824756E-3
MEAN_MOTION_DOT = .6101E-4
MEAN_MOTION_DDOT = 0

CCSDS_OMM_VERS = 2.0
CREATION_DATE  = 
ORIGINATOR     = 

OBJECT_NAME    = ACS3
OBJECT_ID      = 2024-077B
CENTER_NAME    = EARTH
REF_FRAME      = TEME
TIME_SYSTEM    = UTC
MEAN_ELEMENT_THEORY = SGP/SGP4

EPOCH          = 2026-02-16T19:48:43.836768
MEAN_MOTION    = 13.88698762
ECCENTRICITY   = .0047656
INCLINATION    = 97.2185
RA_OF_ASC_NODE = 353.6281
ARG_OF_PERICENTER = 138.6275
MEAN_ANOMALY   = 221.8513

EPHEMERIS_TYPE = 0
CLASSIFICATION_TYPE = U
NORAD_CAT_ID   = 59588
ELEMENT_SET_NO = 999
REV_AT_EPOCH   = 9130
BSTAR          = .13219E-1
MEAN_MOTION_DOT = .16079E-3
MEAN_MOTION_DDOT = 0

CCSDS_OMM_VERS = 2.0
CREATION_DATE  = 
ORIGINATOR     = 

OBJECT_NAME    = SZ-21 MODULE
OBJECT_ID      = 2025-246C
CENTER_NAME    = EARTH
REF_FRAME      = TEME
TIME_SYSTEM    = UTC
MEAN_ELEMENT_THEORY = SGP/SGP4

EPOCH          = 2026-02-16T03:48:48.404448
MEAN_MOTION    = 15.66881556
ECCENTRICITY   = .00020652
INCLINATION    = 41.4767
RA_OF_ASC_NODE = 335.7274
ARG_OF_PERICENTER = 297.2622
MEAN_ANOMALY   = 62.8008

EPHEMERIS_TYPE = 0
CLASSIFICATION_TYPE = U
NORAD_CAT_ID   = 66515
ELEMENT_SET_NO = 999
REV_AT_EPOCH   = 1469
BSTAR          = .33419503E-3
MEAN_MOTION_DOT = .36256E-3
MEAN_MOTION_DDOT = 0

